[{"OBJECT_NAME":"TEIKYOSAT-4 (OORURI)","OBJECT_ID":"2021-102B","EPOCH":"2026-03-09T16:12:29.535840","MEAN_MOTION":15.09119208,"ECCENTRICITY":0.00103447,"INCLINATION":97.3797,"RA_OF_ASC_NODE":101.9931,"ARG_OF_PERICENTER":276.5421,"MEAN_ANOMALY":83.463,"EPHEMERIS_TYPE":0,"CLASSIFICATION_TYPE":"U","NORAD_CAT_ID":49396,"ELEMENT_SET_NO":999,"REV_AT_EPOCH":23771,"BSTAR":0.00015739844,"MEAN_MOTION_DOT":2.438e-5,"MEAN_MOTION_DDOT":0},{"OBJECT_NAME":"STARLINK-3363","OBJECT_ID":"2022-005AH","EPOCH":"2026-03-09T21:59:19.786272","MEAN_MOTION":15.08825601,"ECCENTRICITY":0.0001195,"INCLINATION":53.2172,"RA_OF_ASC_NODE":298.0002,"ARG_OF_PERICENTER":92.415,"MEAN_ANOMALY":267.6979,"EPHEMERIS_TYPE":0,"CLASSIFICATION_TYPE":"U","NORAD_CAT_ID":51135,"ELEMENT_SET_NO":999,"REV_AT_EPOCH":22876,"BSTAR":-6.435096e-6,"MEAN_MOTION_DOT":-3.9e-6,"MEAN_MOTION_DDOT":0}]
